{
    "links": {
        "self": "http://www.neowsapp.com/rest/v1/neo/3602626?api_key=iIulBulltgU6a56xZRHN4H3l9WmuAYTsLGpBGhQ2"
    },
    "id": "3602626",
    "neo_reference_id": "3602626",
    "name": "(2012 HQ)",
    "designation": "2012 HQ",
    "nasa_jpl_url": "http://ssd.jpl.nasa.gov/sbdb.cgi?sstr=3602626",
    "absolute_magnitude_h": 25.0,
    "estimated_diameter": {
        "kilometers": {
            "estimated_diameter_min": 0.02658,
            "estimated_diameter_max": 0.0594346868
        },
        "meters": {
            "estimated_diameter_min": 26.58,
            "estimated_diameter_max": 59.4346868419
        },
        "miles": {
            "estimated_diameter_min": 0.0165160412,
            "estimated_diameter_max": 0.0369309908
        },
        "feet": {
            "estimated_diameter_min": 87.2047272,
            "estimated_diameter_max": 194.9956979785
        }
    },
    "is_potentially_hazardous_asteroid": false,
    "close_approach_data": [
        {
            "close_approach_date": "2012-04-24",
            "close_approach_date_full": "2012-Apr-24 08:57",
            "epoch_date_close_approach": 1335257820000,
            "relative_velocity": {
                "kilometers_per_second": "19.153135932",
                "kilometers_per_hour": "68951.2893553674",
                "miles_per_hour": "42843.6497663948"
            },
            "miss_distance": {
                "astronomical": "0.0250391918",
                "lunar": "9.7402456102",
                "kilometers": "3745809.759801466",
                "miles": "2327538.2553575908"
            },
            "orbiting_body": "Earth"
        }
    ],
    "orbital_data": {
        "orbit_id": "7",
        "orbit_determination_date": "2017-04-06 08:50:05",
        "first_observation_date": "2012-04-16",
        "last_observation_date": "2012-04-21",
        "data_arc_in_days": 5,
        "observations_used": 30,
        "orbit_uncertainty": "8",
        "minimum_orbit_intersection": ".016043",
        "jupiter_tisserand_invariant": "3.454",
        "epoch_osculation": "2456034.5",
        "eccentricity": ".6760129831227748",
        "semi_major_axis": "2.054351007130099",
        "inclination": "6.163279848587067",
        "ascending_node_longitude": "23.3626231464303",
        "orbital_period": "1075.499965598378",
        "perihelion_distance": ".6655830544188041",
        "perihelion_argument": "271.0890564972827",
        "aphelion_distance": "3.443118959841394",
        "perihelion_time": "2456088.581614693944",
        "mean_anomaly": "341.89736688742",
        "mean_motion": ".3347280441796258",
        "equinox": "J2000",
        "orbit_class": {
            "orbit_class_type": "APO",
            "orbit_class_description": "Near-Earth asteroid orbits which cross the Earth’s orbit similar to that of 1862 Apollo",
            "orbit_class_range": "a (semi-major axis) > 1.0 AU; q (perihelion) < 1.017 AU"
        }
    },
    "is_sentry_object": false
}